[{"OBJECT_NAME":"STARLINK-32701","OBJECT_ID":"2025-003Z","EPOCH":"2025-08-01T00:36:11.306304","MEAN_MOTION":15.27588709,"ECCENTRICITY":9.45e-5,"INCLINATION":42.9992,"RA_OF_ASC_NODE":95.175,"ARG_OF_PERICENTER":265.6934,"MEAN_ANOMALY":94.3809,"EPHEMERIS_TYPE":0,"CLASSIFICATION_TYPE":"U","NORAD_CAT_ID":62510,"ELEMENT_SET_NO":999,"REV_AT_EPOCH":3280,"BSTAR":0.00048303,"MEAN_MOTION_DOT":0.00013057,"MEAN_MOTION_DDOT":0},{"OBJECT_NAME":"STARLINK-11452 [DTC]","OBJECT_ID":"2025-004A","EPOCH":"2025-08-01T08:11:06.115200","MEAN_MOTION":15.70945212,"ECCENTRICITY":0.0001738,"INCLINATION":43.0001,"RA_OF_ASC_NODE":318.9009,"ARG_OF_PERICENTER":261.5063,"MEAN_ANOMALY":98.5607,"EPHEMERIS_TYPE":0,"CLASSIFICATION_TYPE":"U","NORAD_CAT_ID":62511,"ELEMENT_SET_NO":999,"REV_AT_EPOCH":3347,"BSTAR":0.0016908,"MEAN_MOTION_DOT":0.00223422,"MEAN_MOTION_DDOT":0},{"OBJECT_NAME":"STARLINK-11443 [DTC]","OBJECT_ID":"2025-004B","EPOCH":"2025-08-01T07:25:25.000896","MEAN_MOTION":15.70965957,"ECCENTRICITY":0.0002422,"INCLINATION":42.999,"RA_OF_ASC_NODE":319.5436,"ARG_OF_PERICENTER":283.5826,"MEAN_ANOMALY":76.4772,"EPHEMERIS_TYPE":0,"CLASSIFICATION_TYPE":"U","NORAD_CAT_ID":62512,"ELEMENT_SET_NO":999,"REV_AT_EPOCH":3345,"BSTAR":0.001584,"MEAN_MOTION_DOT":0.00209107,"MEAN_MOTION_DDOT":0},{"OBJECT_NAME":"STARLINK-11440 [DTC]","OBJECT_ID":"2025-004C","EPOCH":"2025-08-01T07:02:28.433760","MEAN_MOTION":15.70863765,"ECCENTRICITY":0.0001801,"INCLINATION":42.9992,"RA_OF_ASC_NODE":319.4108,"ARG_OF_PERICENTER":266.6287,"MEAN_ANOMALY":93.4375,"EPHEMERIS_TYPE":0,"CLASSIFICATION_TYPE":"U","NORAD_CAT_ID":62513,"ELEMENT_SET_NO":999,"REV_AT_EPOCH":3345,"BSTAR":0.0002613,"MEAN_MOTION_DOT":0.00033248,"MEAN_MOTION_DDOT":0},{"OBJECT_NAME":"STARLINK-11514 [DTC]","OBJECT_ID":"2025-004D","EPOCH":"2025-08-01T08:04:46.060608","MEAN_MOTION":15.70968402,"ECCENTRICITY":0.000208,"INCLINATION":43.0001,"RA_OF_ASC_NODE":318.8638,"ARG_OF_PERICENTER":266.3137,"MEAN_ANOMALY":93.7493,"EPHEMERIS_TYPE":0,"CLASSIFICATION_TYPE":"U","NORAD_CAT_ID":62514,"ELEMENT_SET_NO":999,"REV_AT_EPOCH":3255,"BSTAR":0.0016313,"MEAN_MOTION_DOT":0.00215551,"MEAN_MOTION_DDOT":0},{"OBJECT_NAME":"STARLINK-11508 [DTC]","OBJECT_ID":"2025-004E","EPOCH":"2025-08-01T10:58:55.887456","MEAN_MOTION":15.70860309,"ECCENTRICITY":7.96e-5,"INCLINATION":42.997,"RA_OF_ASC_NODE":318.0454,"ARG_OF_PERICENTER":207.7524,"MEAN_ANOMALY":152.3301,"EPHEMERIS_TYPE":0,"CLASSIFICATION_TYPE":"U","NORAD_CAT_ID":62515,"ELEMENT_SET_NO":999,"REV_AT_EPOCH":3348,"BSTAR":0.00152,"MEAN_MOTION_DOT":0.00199512,"MEAN_MOTION_DDOT":0},{"OBJECT_NAME":"STARLINK-11510 [DTC]","OBJECT_ID":"2025-004F","EPOCH":"2025-08-01T11:44:48.244128","MEAN_MOTION":15.70862243,"ECCENTRICITY":0.0001899,"INCLINATION":43.0005,"RA_OF_ASC_NODE":318.3023,"ARG_OF_PERICENTER":281.5127,"MEAN_ANOMALY":78.5527,"EPHEMERIS_TYPE":0,"CLASSIFICATION_TYPE":"U","NORAD_CAT_ID":62516,"ELEMENT_SET_NO":999,"REV_AT_EPOCH":3349,"BSTAR":0.0010185,"MEAN_MOTION_DOT":0.00132467,"MEAN_MOTION_DDOT":0},{"OBJECT_NAME":"STARLINK-11512 [DTC]","OBJECT_ID":"2025-004G","EPOCH":"2025-08-01T07:32:52.276416","MEAN_MOTION":15.70869945,"ECCENTRICITY":0.0002488,"INCLINATION":42.999,"RA_OF_ASC_NODE":318.6838,"ARG_OF_PERICENTER":155.9693,"MEAN_ANOMALY":204.1291,"EPHEMERIS_TYPE":0,"CLASSIFICATION_TYPE":"U","NORAD_CAT_ID":62517,"ELEMENT_SET_NO":999,"REV_AT_EPOCH":3346,"BSTAR":0.00034635,"MEAN_MOTION_DOT":0.00044289,"MEAN_MOTION_DDOT":0},{"OBJECT_NAME":"STARLINK-11450 [DTC]","OBJECT_ID":"2025-004H","EPOCH":"2025-08-01T12:53:25.477152","MEAN_MOTION":15.70873081,"ECCENTRICITY":0.0001815,"INCLINATION":43,"RA_OF_ASC_NODE":317.7888,"ARG_OF_PERICENTER":260.2797,"MEAN_ANOMALY":99.7866,"EPHEMERIS_TYPE":0,"CLASSIFICATION_TYPE":"U","NORAD_CAT_ID":62518,"ELEMENT_SET_NO":999,"REV_AT_EPOCH":3349,"BSTAR":0.0010035,"MEAN_MOTION_DOT":0.00130538,"MEAN_MOTION_DDOT":0},{"OBJECT_NAME":"STARLINK-11507 [DTC]","OBJECT_ID":"2025-004J","EPOCH":"2025-08-01T09:57:57.244896","MEAN_MOTION":15.7084105,"ECCENTRICITY":0.0001634,"INCLINATION":42.9982,"RA_OF_ASC_NODE":318.5994,"ARG_OF_PERICENTER":292.9495,"MEAN_ANOMALY":67.12,"EPHEMERIS_TYPE":0,"CLASSIFICATION_TYPE":"U","NORAD_CAT_ID":62519,"ELEMENT_SET_NO":999,"REV_AT_EPOCH":3331,"BSTAR":0.0017671,"MEAN_MOTION_DOT":0.00232769,"MEAN_MOTION_DDOT":0},{"OBJECT_NAME":"STARLINK-11482 [DTC]","OBJECT_ID":"2025-004K","EPOCH":"2025-08-01T00:00:02.000160","MEAN_MOTION":15.70874555,"ECCENTRICITY":0.0001615,"INCLINATION":43.0001,"RA_OF_ASC_NODE":320.6525,"ARG_OF_PERICENTER":268.6637,"MEAN_ANOMALY":80.8325,"EPHEMERIS_TYPE":0,"CLASSIFICATION_TYPE":"U","NORAD_CAT_ID":62520,"ELEMENT_SET_NO":999,"REV_AT_EPOCH":3341,"BSTAR":-0.00063292,"MEAN_MOTION_DOT":-0.00080993,"MEAN_MOTION_DDOT":0},{"OBJECT_NAME":"STARLINK-11528 [DTC]","OBJECT_ID":"2025-004L","EPOCH":"2025-08-01T08:49:20.134560","MEAN_MOTION":15.70689907,"ECCENTRICITY":0.0001395,"INCLINATION":42.9973,"RA_OF_ASC_NODE":319.1018,"ARG_OF_PERICENTER":187.2152,"MEAN_ANOMALY":172.8696,"EPHEMERIS_TYPE":0,"CLASSIFICATION_TYPE":"U","NORAD_CAT_ID":62521,"ELEMENT_SET_NO":999,"REV_AT_EPOCH":3346,"BSTAR":0.0061863,"MEAN_MOTION_DOT":0.00861985,"MEAN_MOTION_DDOT":0},{"OBJECT_NAME":"STARLINK-11516 [DTC]","OBJECT_ID":"2025-004M","EPOCH":"2025-08-01T12:38:08.195136","MEAN_MOTION":15.7087028,"ECCENTRICITY":0.0002167,"INCLINATION":42.9997,"RA_OF_ASC_NODE":317.7029,"ARG_OF_PERICENTER":279.1834,"MEAN_ANOMALY":80.8789,"EPHEMERIS_TYPE":0,"CLASSIFICATION_TYPE":"U","NORAD_CAT_ID":62522,"ELEMENT_SET_NO":999,"REV_AT_EPOCH":3321,"BSTAR":0.0010915,"MEAN_MOTION_DOT":0.00142212,"MEAN_MOTION_DDOT":0},{"OBJECT_NAME":"STARLINK-11527 [DTC]","OBJECT_ID":"2025-004N","EPOCH":"2025-08-01T07:48:09.884160","MEAN_MOTION":15.70851689,"ECCENTRICITY":0.0001264,"INCLINATION":42.999,"RA_OF_ASC_NODE":318.7672,"ARG_OF_PERICENTER":269.4849,"MEAN_ANOMALY":90.5873,"EPHEMERIS_TYPE":0,"CLASSIFICATION_TYPE":"U","NORAD_CAT_ID":62523,"ELEMENT_SET_NO":999,"REV_AT_EPOCH":3346,"BSTAR":0.0014754,"MEAN_MOTION_DOT":0.0019343,"MEAN_MOTION_DDOT":0},{"OBJECT_NAME":"STARLINK-32748","OBJECT_ID":"2025-004P","EPOCH":"2025-07-31T23:08:50.555328","MEAN_MOTION":15.27613924,"ECCENTRICITY":0.0001216,"INCLINATION":42.9973,"RA_OF_ASC_NODE":26.2312,"ARG_OF_PERICENTER":239.4826,"MEAN_ANOMALY":120.5906,"EPHEMERIS_TYPE":0,"CLASSIFICATION_TYPE":"U","NORAD_CAT_ID":62524,"ELEMENT_SET_NO":999,"REV_AT_EPOCH":3252,"BSTAR":0.0014254,"MEAN_MOTION_DOT":0.00039211,"MEAN_MOTION_DDOT":0},{"OBJECT_NAME":"STARLINK-32777","OBJECT_ID":"2025-004Q","EPOCH":"2025-08-01T12:39:27.678816","MEAN_MOTION":15.27579341,"ECCENTRICITY":0.0001548,"INCLINATION":43.0051,"RA_OF_ASC_NODE":23.5796,"ARG_OF_PERICENTER":270.2075,"MEAN_ANOMALY":89.8599,"EPHEMERIS_TYPE":0,"CLASSIFICATION_TYPE":"U","NORAD_CAT_ID":62525,"ELEMENT_SET_NO":999,"REV_AT_EPOCH":3275,"BSTAR":0.0010329,"MEAN_MOTION_DOT":0.00028269,"MEAN_MOTION_DDOT":0},{"OBJECT_NAME":"STARLINK-32741","OBJECT_ID":"2025-004R","EPOCH":"2025-08-01T12:23:30.257952","MEAN_MOTION":15.2758647,"ECCENTRICITY":0.0001353,"INCLINATION":43.0032,"RA_OF_ASC_NODE":20.031,"ARG_OF_PERICENTER":262.1939,"MEAN_ANOMALY":97.8759,"EPHEMERIS_TYPE":0,"CLASSIFICATION_TYPE":"U","NORAD_CAT_ID":62526,"ELEMENT_SET_NO":999,"REV_AT_EPOCH":3279,"BSTAR":0.00098887,"MEAN_MOTION_DOT":0.00027055,"MEAN_MOTION_DDOT":0},{"OBJECT_NAME":"STARLINK-32754","OBJECT_ID":"2025-004S","EPOCH":"2025-07-31T21:56:52.958976","MEAN_MOTION":15.27588826,"ECCENTRICITY":0.000109,"INCLINATION":43.0023,"RA_OF_ASC_NODE":26.7173,"ARG_OF_PERICENTER":267.1453,"MEAN_ANOMALY":92.9274,"EPHEMERIS_TYPE":0,"CLASSIFICATION_TYPE":"U","NORAD_CAT_ID":62527,"ELEMENT_SET_NO":999,"REV_AT_EPOCH":3174,"BSTAR":0.00074927,"MEAN_MOTION_DOT":0.00020419,"MEAN_MOTION_DDOT":0},{"OBJECT_NAME":"STARLINK-32786","OBJECT_ID":"2025-004T","EPOCH":"2025-08-01T11:16:11.721504","MEAN_MOTION":15.27596109,"ECCENTRICITY":6.41e-5,"INCLINATION":43.0001,"RA_OF_ASC_NODE":23.1402,"ARG_OF_PERICENTER":299.3477,"MEAN_ANOMALY":60.7311,"EPHEMERIS_TYPE":0,"CLASSIFICATION_TYPE":"U","NORAD_CAT_ID":62528,"ELEMENT_SET_NO":999,"REV_AT_EPOCH":3276,"BSTAR":0.00093805,"MEAN_MOTION_DOT":0.00025653,"MEAN_MOTION_DDOT":0},{"OBJECT_NAME":"STARLINK-32789","OBJECT_ID":"2025-004U","EPOCH":"2025-07-31T11:07:02.603712","MEAN_MOTION":15.27588969,"ECCENTRICITY":5.74e-5,"INCLINATION":43.0007,"RA_OF_ASC_NODE":29.3442,"ARG_OF_PERICENTER":306.7733,"MEAN_ANOMALY":53.3065,"EPHEMERIS_TYPE":0,"CLASSIFICATION_TYPE":"U","NORAD_CAT_ID":62529,"ELEMENT_SET_NO":999,"REV_AT_EPOCH":3262,"BSTAR":0.0014751,"MEAN_MOTION_DOT":0.00040564,"MEAN_MOTION_DDOT":0},{"OBJECT_NAME":"STARLINK-32791","OBJECT_ID":"2025-004V","EPOCH":"2025-08-01T11:53:11.665824","MEAN_MOTION":15.27594961,"ECCENTRICITY":0.0001323,"INCLINATION":42.9986,"RA_OF_ASC_NODE":23.3292,"ARG_OF_PERICENTER":272.5217,"MEAN_ANOMALY":87.5483,"EPHEMERIS_TYPE":0,"CLASSIFICATION_TYPE":"U","NORAD_CAT_ID":62530,"ELEMENT_SET_NO":999,"REV_AT_EPOCH":3275,"BSTAR":0.0013723,"MEAN_MOTION_DOT":0.00037711,"MEAN_MOTION_DDOT":0},{"OBJECT_NAME":"STARLINK-32785","OBJECT_ID":"2025-004W","EPOCH":"2025-08-01T12:24:39.474720","MEAN_MOTION":15.27582486,"ECCENTRICITY":0.0001184,"INCLINATION":43.003,"RA_OF_ASC_NODE":23.5014,"ARG_OF_PERICENTER":258.3126,"MEAN_ANOMALY":101.7592,"EPHEMERIS_TYPE":0,"CLASSIFICATION_TYPE":"U","NORAD_CAT_ID":62531,"ELEMENT_SET_NO":999,"REV_AT_EPOCH":3275,"BSTAR":0.00093366,"MEAN_MOTION_DOT":0.00025521,"MEAN_MOTION_DDOT":0},{"OBJECT_NAME":"STARLINK-11538 [DTC]","OBJECT_ID":"2025-006A","EPOCH":"2025-07-31T21:52:06.377088","MEAN_MOTION":15.70893879,"ECCENTRICITY":0.0003136,"INCLINATION":43.0022,"RA_OF_ASC_NODE":30.3224,"ARG_OF_PERICENTER":281.5299,"MEAN_ANOMALY":78.5217,"EPHEMERIS_TYPE":0,"CLASSIFICATION_TYPE":"U","NORAD_CAT_ID":62554,"ELEMENT_SET_NO":999,"REV_AT_EPOCH":3290,"BSTAR":0.0017255,"MEAN_MOTION_DOT":0.00227663,"MEAN_MOTION_DDOT":0}]
